KUIPER-00160            
1 67765U 26030B   26050.66668981  .00057374  00000+0  16727-2 0  9995
2 67765  51.8812 306.0258 0004152  14.0226 342.8802 15.34806019  1307
KUIPER-00177            
1 67766U 26030C   26050.66668981  .00057870  00000+0  16358-2 0  9997
2 67766  51.8834 305.9780 0001165 116.3530 264.6679 15.35777876  2229
KUIPER-00178            
1 67767U 26030D   26050.66668981  .00058222  00000+0  17044-2 0  9993
2 67767  51.8835 306.0349 0005299   0.1895 353.2160 15.34665651  1595
KUIPER-00180            
1 67768U 26030E   26050.66668981  .00052755  00000+0  16373-2 0  9993
2 67768  51.8819 306.1254 0014711  13.8590 293.2587 15.32770775  1303
KUIPER-00197            
1 67769U 26030F   26050.66668981  .00057294  00000+0  16327-2 0  9996
2 67769  51.8834 305.9889 0001687  71.6299 304.0488 15.35528954  1302
KUIPER-00198            
1 67770U 26030G   26050.66668981  .00057297  00000+0  16511-2 0  9996
2 67770  51.8812 306.0070 0002488  18.9570 347.3381 15.35176279  1301
KUIPER-00199            
1 67771U 26030H   26050.66668981  .00054260  00000+0  16436-2 0  9990
2 67771  51.8815 306.0866 0010064   8.0028 318.5284 15.33584476  2230
KUIPER-00200            
1 67772U 26030J   26050.66668981  .00056584  00000+0  15818-2 0  9995
2 67772  51.8812 305.9577 0002775 140.3416 250.3528 15.36131017  2120
KUIPER-00203            
1 67773U 26030K   26050.66668981  .00053466  00000+0  16336-2 0  9998
2 67773  51.8807 306.0988 0012206   9.4260 310.2137 15.33293838  1303
KUIPER-00205            
1 67774U 26030L   26050.66668981  .00067308  00000+0  19179-2 0  9997
2 67774  51.8811 305.9942 0001428 354.0945  18.4628 15.35458847  1510
KUIPER-00208            
1 67775U 26030M   26050.66668981  .00052324  00000+0  16272-2 0  9991
2 67775  51.8843 306.1261 0014720   9.7564 299.4404 15.32708847  2062
KUIPER-00209            
1 67776U 26030N   26050.66668981  .00052383  00000+0  16252-2 0  9995
2 67776  51.8836 306.1153 0012533   8.9215 304.8928 15.32812845  1716
KUIPER-00213            
1 67777U 26030P   26050.66668981  .00052636  00000+0  16297-2 0  9996
2 67777  51.8818 306.1141 0014195   9.5172 303.1803 15.32854247  2222
KUIPER-00214            
1 67778U 26030Q   26050.66668981  .00058219  00000+0  16339-2 0  9997
2 67778  51.8844 305.9667 0002153 127.3110 259.2704 15.35997854  2130
KUIPER-00215            
1 67779U 26030R   26050.66668981  .00054295  00000+0  16380-2 0  9994
2 67779  51.8846 306.0826 0009857   6.9001 323.7198 15.33714516  1303
KUIPER-00218            
1 67780U 26030S   26050.66668981  .00057073  00000+0  16845-2 0  9999
2 67780  51.8836 306.0475 0006105   5.5809 341.6326 15.34413261  1304
KUIPER-00220            
1 67781U 26030T   26050.66668981  .00056451  00000+0  16915-2 0  9997
2 67781  51.8814 306.0667 0007839   6.0675 330.4782 15.33929123  1845
KUIPER-00222            
1 67782U 26030U   26050.66668981  .00052087  00000+0  16256-2 0  9997
2 67782  51.8819 306.1332 0016334  11.5256 291.3680 15.32574122  2170
KUIPER-00223            
1 67783U 26030V   26050.66668981  .00054240  00000+0  16493-2 0  9994
2 67783  51.8834 306.0948 0011886   6.0457 317.8098 15.33444467  1994
KUIPER-00225            
1 67784U 26030W   26050.66668981  .00056988  00000+0  16487-2 0  9999
2 67784  51.8811 306.0120 0003184 359.7468   3.9218 15.35054287  1305
KUIPER-00226            
1 67785U 26030X   26050.66668981  .00065038  00000+0  20720-2 0  9991
2 67785  51.8827 306.1675 0020111  18.3334 268.0145 15.31750185  1307
KUIPER-00259            
1 67786U 26030Y   26050.66668981  .00056083  00000+0  16635-2 0  9992
2 67786  51.8813 306.0531 0007538 358.1457 345.0608 15.34254128  2289
KUIPER-00260            
1 67787U 26030Z   26050.66668981  .00058915  00000+0  16713-2 0  9996
2 67787  51.8801 305.9822 0001368  86.8395 291.4464 15.35658024  2153
KUIPER-00262            
1 67788U 26030AA  26050.66668981  .00057288  00000+0  16142-2 0  9995
2 67788  51.8812 305.9724 0002067 112.6383 270.8460 15.35880222  1309
KUIPER-00266            
1 67789U 26030AB  26050.66668981  .00049598  00000+0  16032-2 0  9999
2 67789  51.8825 306.1811 0021885  18.0066 260.7664 15.31371227  1300
KUIPER-00268            
1 67790U 26030AC  26050.66668981  .00057136  00000+0  16436-2 0  9996
2 67790  51.8846 306.0013 0001632  25.2552 344.7475 15.35234596  1300
KUIPER-00270            
1 67791U 26030AD  26050.66668981  .00056306  00000+0  16912-2 0  9994
2 67791  51.8814 306.0718 0009714   4.1143 329.7351 15.33839055  1304
KUIPER-00274            
1 67792U 26030AE  26050.66668981  .00050124  00000+0  15766-2 0  9993
2 67792  51.8837 306.1470 0016753  15.6414 282.5338 15.32334528  1300
KUIPER-00275            
1 67793U 26030AF  26050.66668981  .00056837  00000+0  16925-2 0  9999
2 67793  51.8846 306.0633 0007870   2.8208 337.2807 15.34123564  1307
KUIPER-00276            
1 67794U 26030AG  26050.66668981  .00067198  00000+0  21311-2 0  9997
2 67794  51.8832 306.1543 0018876  10.9415 283.1386 15.31903641  2022
KUIPER-00279            
1 67795U 26030AH  26050.66668981  .00056903  00000+0  16729-2 0  9997
2 67795  51.8802 306.0379 0005762   1.0621 349.2467 15.34539469  1306
